CENTISPACE-1 GROUP 05 O*
1 69636U 26138J   26169.97693703 -.00000111  00000+0  21502-4 0  9995
2 69636  55.1435 274.5405 0008130 278.6009  81.4044 14.15937982   242
